STARLINK-2214
1 28566C 21041P   21325.15103088 -.00000318  00000-0 -21279-4 0  3258
2 28566  53.0556 347.5527 0001510  57.2788 336.0790 15.06400608    11
